[{"OBJECT_NAME":"STARLINK-5921","OBJECT_ID":"2023-037N","EPOCH":"2026-03-09T22:23:24.352800","MEAN_MOTION":14.98319781,"ECCENTRICITY":0.0002778,"INCLINATION":69.9978,"RA_OF_ASC_NODE":283.9635,"ARG_OF_PERICENTER":268.4707,"MEAN_ANOMALY":91.6134,"EPHEMERIS_TYPE":0,"CLASSIFICATION_TYPE":"U","NORAD_CAT_ID":55926,"ELEMENT_SET_NO":999,"REV_AT_EPOCH":16401,"BSTAR":-0.00015944198,"MEAN_MOTION_DOT":-1.994e-5,"MEAN_MOTION_DDOT":0},{"OBJECT_NAME":"UM5-RIBAT","OBJECT_ID":"2024-149CQ","EPOCH":"2026-03-09T19:05:41.327808","MEAN_MOTION":15.00468196,"ECCENTRICITY":0.00032721,"INCLINATION":97.6776,"RA_OF_ASC_NODE":147.9138,"ARG_OF_PERICENTER":87.0399,"MEAN_ANOMALY":273.1199,"EPHEMERIS_TYPE":0,"CLASSIFICATION_TYPE":"U","NORAD_CAT_ID":60554,"ELEMENT_SET_NO":999,"REV_AT_EPOCH":8528,"BSTAR":0.00037992942,"MEAN_MOTION_DOT":4.725e-5,"MEAN_MOTION_DDOT":0}]
